{"type": "FeatureCollection", "features": [ {"type": "Feature", "properties": {"norad_id": 43262, "name": "GAOFEN-1 04", "group": "resource", "lat": -16.266894267395493, "lon": -138.30001948992606, "alt_km": 645.9940422934642, "timestamp": "2025-12-12T05:47:28.429608+00:00", "meta": {"OBJECT_NAME": "GAOFEN-1 04", "OBJECT_ID": "2018-031D", "EPOCH": "2025-12-12T00:01:31.359360", "MEAN_MOTION": 14.7644788, "ECCENTRICITY": 0.00010775, "INCLINATION": 98.0804, "RA_OF_ASC_NODE": 43.8355, "ARG_OF_PERICENTER": 57.4038, "MEAN_ANOMALY": 302.7275, "EPHEMERIS_TYPE": 0, "CLASSIFICATION_TYPE": "U", "NORAD_CAT_ID": 43262, "ELEMENT_SET_NO": 999, "REV_AT_EPOCH": 41506, "BSTAR": 0.00026257302, "MEAN_MOTION_DOT": 1.775e-05, "MEAN_MOTION_DDOT": 0}, "tle": {"line1": "1 43262U 18031D   25346.00105740  .00001775  00000+0  26257-3 0  9991", "line2": "2 43262  98.0804  43.8355 0001077  57.4038 302.7275 14.76447880415069"}}, "geometry": {"type": "Point", "coordinates": [-138.30001948992606, -16.266894267395493]}}, {"type": "Feature", "properties": {"norad_id": 43437, "name": "SENTINEL-3B", "group": "resource", "lat": 81.13357930649113, "lon": -51.86636561677185, "alt_km": 794.0829918584368, "timestamp": "2025-12-12T05:47:28.429618+00:00", "meta": {"OBJECT_NAME": "SENTINEL-3B", "OBJECT_ID": "2018-039A", "EPOCH": "2025-12-11T10:50:50.552736", "MEAN_MOTION": 14.26742264, "ECCENTRICITY": 0.00015576, "INCLINATION": 98.6268, "RA_OF_ASC_NODE": 50.6556, "ARG_OF_PERICENTER": 104.2946, "MEAN_ANOMALY": 255.8408, "EPHEMERIS_TYPE": 0, "CLASSIFICATION_TYPE": "U", "NORAD_CAT_ID": 43437, "ELEMENT_SET_NO": 999, "REV_AT_EPOCH": 39735, "BSTAR": 0.00012251697, "MEAN_MOTION_DOT": 2.53e-06, "MEAN_MOTION_DDOT": 0}, "tle": {"line1": "1 43437U 18039A   25345.45197399  .00000253  00000+0  12252-3 0  9992", "line2": "2 43437  98.6268  50.6556 0001557 104.2946 255.8408 14.26742264397350"}}, "geometry": {"type": "Point", "coordinates": [-51.86636561677185, 81.13357930649113]}}, {"type": "Feature", "properties": {"norad_id": 43461, "name": "GAOFEN-5 01", "group": "resource", "lat": 20.425924572400596, "lon": -53.96722294574568, "alt_km": 691.2827211986323, "timestamp": "2025-12-12T05:47:28.429628+00:00", "meta": {"OBJECT_NAME": "GAOFEN-5 01", "OBJECT_ID": "2018-043A", "EPOCH": "2025-12-11T21:28:30.765792", "MEAN_MOTION": 14.60408706, "ECCENTRICITY": 0.00010119, "INCLINATION": 98.4325, "RA_OF_ASC_NODE": 308.8472, "ARG_OF_PERICENTER": 343.2547, "MEAN_ANOMALY": 16.8619, "EPHEMERIS_TYPE": 0, "CLASSIFICATION_TYPE": "U", "NORAD_CAT_ID": 43461, "ELEMENT_SET_NO": 999, "REV_AT_EPOCH": 40435, "BSTAR": 0.00017528587, "MEAN_MOTION_DOT": 8e-06, "MEAN_MOTION_DDOT": 0}, "tle": {"line1": "1 43461U 18043A   25345.89480053  .00000800  00000+0  17529-3 0  9994", "line2": "2 43461  98.4325 308.8472 0001011 343.2547  16.8619 14.60408706404357"}}, "geometry": {"type": "Point", "coordinates": [-53.96722294574568, 20.425924572400596]}}, {"type": "Feature", "properties": {"norad_id": 43484, "name": "GAOFEN-6", "group": "resource", "lat": -12.85269766771428, "lon": 52.31717918923394, "alt_km": 642.7448595469859, "timestamp": "2025-12-12T05:47:28.429643+00:00", "meta": {"OBJECT_NAME": "GAOFEN-6", "OBJECT_ID": "2018-048A", "EPOCH": "2025-12-12T00:58:14.342592", "MEAN_MOTION": 14.76564444, "ECCENTRICITY": 0.00132605, "INCLINATION": 97.8028, "RA_OF_ASC_NODE": 50.3302, "ARG_OF_PERICENTER": 65.6381, "MEAN_ANOMALY": 294.6212, "EPHEMERIS_TYPE": 0, "CLASSIFICATION_TYPE": "U", "NORAD_CAT_ID": 43484, "ELEMENT_SET_NO": 999, "REV_AT_EPOCH": 40577, "BSTAR": 0.00019798376, "MEAN_MOTION_DOT": 1.334e-05, "MEAN_MOTION_DDOT": 0}, "tle": {"line1": "1 43484U 18048A   25346.04044378  .00001334  00000+0  19798-3 0  9991", "line2": "2 43484  97.8028  50.3302 0013260  65.6381 294.6212 14.76564444405777"}}, "geometry": {"type": "Point", "coordinates": [52.31717918923394, -12.85269766771428]}}, {"type": "Feature", "properties": {"norad_id": 43585, "name": "GAOFEN-11 01", "group": "resource", "lat": 23.470391674639828, "lon": 46.05257765403249, "alt_km": 417.5632268337504, "timestamp": "2025-12-12T05:47:28.429654+00:00", "meta": {"OBJECT_NAME": "GAOFEN-11 01", "OBJECT_ID": "2018-063A", "EPOCH": "2025-12-11T23:29:18.932640", "MEAN_MOTION": 15.49189127, "ECCENTRICITY": 0.0004277, "INCLINATION": 97.1557, "RA_OF_ASC_NODE": 48.9192, "ARG_OF_PERICENTER": 317.6846, "MEAN_ANOMALY": 42.4075, "EPHEMERIS_TYPE": 0, "CLASSIFICATION_TYPE": "U", "NORAD_CAT_ID": 43585, "ELEMENT_SET_NO": 999, "REV_AT_EPOCH": 41130, "BSTAR": 0.00053640609, "MEAN_MOTION_DOT": 0.00029202, "MEAN_MOTION_DDOT": 0}, "tle": {"line1": "1 43585U 18063A   25345.97869135  .00029202  00000+0  53641-3 0  9996", "line2": "2 43585  97.1557  48.9192 0004277 317.6846  42.4075 15.49189127411307"}}, "geometry": {"type": "Point", "coordinates": [46.05257765403249, 23.470391674639828]}}, {"type": "Feature", "properties": {"norad_id": 43613, "name": "ICESAT-2", "group": "resource", "lat": 22.32020792351165, "lon": 61.426600239207154, "alt_km": 478.72679316028825, "timestamp": "2025-12-12T05:47:28.429664+00:00", "meta": {"OBJECT_NAME": "ICESAT-2", "OBJECT_ID": "2018-070A", "EPOCH": "2025-12-12T00:23:23.810784", "MEAN_MOTION": 15.28366509, "ECCENTRICITY": 0.00027026, "INCLINATION": 92.0043, "RA_OF_ASC_NODE": 240.5421, "ARG_OF_PERICENTER": 151.2853, "MEAN_ANOMALY": 208.8546, "EPHEMERIS_TYPE": 0, "CLASSIFICATION_TYPE": "U", "NORAD_CAT_ID": 43613, "ELEMENT_SET_NO": 999, "REV_AT_EPOCH": 40387, "BSTAR": 0.00068481157, "MEAN_MOTION_DOT": 0.00018929, "MEAN_MOTION_DDOT": 0}, "tle": {"line1": "1 43613U 18070A   25346.01624781  .00018929  00000+0  68481-3 0  9990", "line2": "2 43613  92.0043 240.5421 0002702 151.2853 208.8546 15.28366509403871"}}, "geometry": {"type": "Point", "coordinates": [61.426600239207154, 22.32020792351165]}}, {"type": "Feature", "properties": {"norad_id": 43719, "name": "HYSIS", "group": "resource", "lat": 18.559569092128264, "lon": 46.51128205403097, "alt_km": 633.1482548833555, "timestamp": "2025-12-12T05:47:28.429674+00:00", "meta": {"OBJECT_NAME": "HYSIS", "OBJECT_ID": "2018-096A", "EPOCH": "2025-12-11T23:12:37.161792", "MEAN_MOTION": 14.78641199, "ECCENTRICITY": 0.00014295, "INCLINATION": 98.0094, "RA_OF_ASC_NODE": 48.9481, "ARG_OF_PERICENTER": 58.4029, "MEAN_ANOMALY": 301.7321, "EPHEMERIS_TYPE": 0, "CLASSIFICATION_TYPE": "U", "NORAD_CAT_ID": 43719, "ELEMENT_SET_NO": 999, "REV_AT_EPOCH": 37975, "BSTAR": 0.00024170733, "MEAN_MOTION_DOT": 1.718e-05, "MEAN_MOTION_DDOT": 0}, "tle": {"line1": "1 43719U 18096A   25345.96709678  .00001718  00000+0  24171-3 0  9993", "line2": "2 43719  98.0094  48.9481 0001429  58.4029 301.7321 14.78641199379752"}}, "geometry": {"type": "Point", "coordinates": [46.51128205403097, 18.559569092128264]}}, {"type": "Feature", "properties": {"norad_id": 43783, "name": "KAZSTSAT", "group": "resource", "lat": -37.6400688374015, "lon": -164.34874867619928, "alt_km": 577.0683907949506, "timestamp": "2025-12-12T05:47:28.429684+00:00", "meta": {"OBJECT_NAME": "KAZSTSAT", "OBJECT_ID": "2018-099AB", "EPOCH": "2025-12-12T00:01:00.235488", "MEAN_MOTION": 14.9934977, "ECCENTRICITY": 0.00059313, "INCLINATION": 97.4559, "RA_OF_ASC_NODE": 21.2176, "ARG_OF_PERICENTER": 333.3797, "MEAN_ANOMALY": 26.7121, "EPHEMERIS_TYPE": 0, "CLASSIFICATION_TYPE": "U", "NORAD_CAT_ID": 43783, "ELEMENT_SET_NO": 999, "REV_AT_EPOCH": 38325, "BSTAR": 0.00019003915, "MEAN_MOTION_DOT": 2.268e-05, "MEAN_MOTION_DDOT": 0}, "tle": {"line1": "1 43783U 18099AB  25346.00069717  .00002268  00000+0  19004-3 0  9996", "line2": "2 43783  97.4559  21.2176 0005931 333.3797  26.7121 14.99349770383251"}}, "geometry": {"type": "Point", "coordinates": [-164.34874867619928, -37.6400688374015]}}, {"type": "Feature", "properties": {"norad_id": 43831, "name": "SAUDISAT 5A", "group": "resource", "lat": -43.29196332536533, "lon": -140.52877810514082, "alt_km": 502.2543737073038, "timestamp": "2025-12-12T05:47:28.429695+00:00", "meta": {"OBJECT_NAME": "SAUDISAT 5A", "OBJECT_ID": "2018-102A", "EPOCH": "2025-12-12T00:05:32.761824", "MEAN_MOTION": 15.2564215, "ECCENTRICITY": 0.00117665, "INCLINATION": 97.3353, "RA_OF_ASC_NODE": 46.2089, "ARG_OF_PERICENTER": 78.6463, "MEAN_ANOMALY": 281.6097, "EPHEMERIS_TYPE": 0, "CLASSIFICATION_TYPE": "U", "NORAD_CAT_ID": 43831, "ELEMENT_SET_NO": 999, "REV_AT_EPOCH": 38711, "BSTAR": 0.00037857041, "MEAN_MOTION_DOT": 9.581e-05, "MEAN_MOTION_DDOT": 0}, "tle": {"line1": "1 43831U 18102A   25346.00385141  .00009581  00000+0  37857-3 0  9998", "line2": "2 43831  97.3353  46.2089 0011766  78.6463 281.6097 15.25642150387119"}}, "geometry": {"type": "Point", "coordinates": [-140.52877810514082, -43.29196332536533]}}, {"type": "Feature", "properties": {"norad_id": 43833, "name": "SAUDISAT 5B", "group": "resource", "lat": -81.04637996506808, "lon": 104.13304269214056, "alt_km": 503.4130708537996, "timestamp": "2025-12-12T05:47:28.429706+00:00", "meta": {"OBJECT_NAME": "SAUDISAT 5B", "OBJECT_ID": "2018-102C", "EPOCH": "2025-12-11T23:52:05.460096", "MEAN_MOTION": 15.25995528, "ECCENTRICITY": 0.00124677, "INCLINATION": 97.3448, "RA_OF_ASC_NODE": 48.9369, "ARG_OF_PERICENTER": 80.8906, "MEAN_ANOMALY": 279.3743, "EPHEMERIS_TYPE": 0, "CLASSIFICATION_TYPE": "U", "NORAD_CAT_ID": 43833, "ELEMENT_SET_NO": 999, "REV_AT_EPOCH": 38722, "BSTAR": 0.00047288588, "MEAN_MOTION_DOT": 0.0001212, "MEAN_MOTION_DDOT": 0}, "tle": {"line1": "1 43833U 18102C   25345.99450764  .00012120  00000+0  47289-3 0  9994", "line2": "2 43833  97.3448  48.9369 0012467  80.8906 279.3743 15.25995528387226"}}, "geometry": {"type": "Point", "coordinates": [104.13304269214056, -81.04637996506808]}}]}